[{"OBJECT_NAME":"STARLINK-4607","OBJECT_ID":"2022-107AS","EPOCH":"2026-03-21T20:51:43.943040","MEAN_MOTION":15.08850592,"ECCENTRICITY":8.706e-5,"INCLINATION":53.2169,"RA_OF_ASC_NODE":209.3344,"ARG_OF_PERICENTER":51.3435,"MEAN_ANOMALY":308.7635,"EPHEMERIS_TYPE":0,"CLASSIFICATION_TYPE":"U","NORAD_CAT_ID":53740,"ELEMENT_SET_NO":999,"REV_AT_EPOCH":19643,"BSTAR":0.00015058333,"MEAN_MOTION_DOT":2.11e-5,"MEAN_MOTION_DDOT":0},{"OBJECT_NAME":"STARLINK-4637","OBJECT_ID":"2022-107AU","EPOCH":"2026-03-21T17:46:16.104288","MEAN_MOTION":15.08848715,"ECCENTRICITY":0.00011972,"INCLINATION":53.2172,"RA_OF_ASC_NODE":209.9552,"ARG_OF_PERICENTER":80.4787,"MEAN_ANOMALY":279.6341,"EPHEMERIS_TYPE":0,"CLASSIFICATION_TYPE":"U","NORAD_CAT_ID":53742,"ELEMENT_SET_NO":999,"REV_AT_EPOCH":19641,"BSTAR":0.00011132228,"MEAN_MOTION_DOT":1.485e-5,"MEAN_MOTION_DDOT":0},{"OBJECT_NAME":"STARLINK-4645","OBJECT_ID":"2022-107AV","EPOCH":"2026-03-21T14:56:42.861120","MEAN_MOTION":15.08847633,"ECCENTRICITY":9.749e-5,"INCLINATION":53.2159,"RA_OF_ASC_NODE":210.6385,"ARG_OF_PERICENTER":89.9948,"MEAN_ANOMALY":270.1156,"EPHEMERIS_TYPE":0,"CLASSIFICATION_TYPE":"U","NORAD_CAT_ID":53743,"ELEMENT_SET_NO":999,"REV_AT_EPOCH":19639,"BSTAR":0.00010443501,"MEAN_MOTION_DOT":1.375e-5,"MEAN_MOTION_DDOT":0},{"OBJECT_NAME":"STARLINK-4670","OBJECT_ID":"2022-107AW","EPOCH":"2026-03-21T13:53:03.652800","MEAN_MOTION":15.08837025,"ECCENTRICITY":0.00013748,"INCLINATION":53.2166,"RA_OF_ASC_NODE":210.3723,"ARG_OF_PERICENTER":88.6627,"MEAN_ANOMALY":271.4522,"EPHEMERIS_TYPE":0,"CLASSIFICATION_TYPE":"U","NORAD_CAT_ID":53744,"ELEMENT_SET_NO":999,"REV_AT_EPOCH":19639,"BSTAR":9.5234317e-5,"MEAN_MOTION_DOT":1.228e-5,"MEAN_MOTION_DDOT":0},{"OBJECT_NAME":"STARLINK-4656","OBJECT_ID":"2022-107AX","EPOCH":"2026-03-21T15:02:01.404096","MEAN_MOTION":15.08847297,"ECCENTRICITY":0.00012473,"INCLINATION":53.2162,"RA_OF_ASC_NODE":210.6646,"ARG_OF_PERICENTER":90.8919,"MEAN_ANOMALY":269.2216,"EPHEMERIS_TYPE":0,"CLASSIFICATION_TYPE":"U","NORAD_CAT_ID":53745,"ELEMENT_SET_NO":999,"REV_AT_EPOCH":19639,"BSTAR":0.00010522475,"MEAN_MOTION_DOT":1.387e-5,"MEAN_MOTION_DDOT":0},{"OBJECT_NAME":"STARLINK-4589","OBJECT_ID":"2022-107AY","EPOCH":"2026-03-21T21:12:55.607616","MEAN_MOTION":15.08882443,"ECCENTRICITY":0.0001278,"INCLINATION":53.217,"RA_OF_ASC_NODE":209.4297,"ARG_OF_PERICENTER":80.413,"MEAN_ANOMALY":279.7007,"EPHEMERIS_TYPE":0,"CLASSIFICATION_TYPE":"U","NORAD_CAT_ID":53746,"ELEMENT_SET_NO":999,"REV_AT_EPOCH":19643,"BSTAR":0.0002222959,"MEAN_MOTION_DOT":3.256e-5,"MEAN_MOTION_DDOT":0},{"OBJECT_NAME":"STARLINK-4612","OBJECT_ID":"2022-107BC","EPOCH":"2026-03-21T15:12:38.148768","MEAN_MOTION":15.08848995,"ECCENTRICITY":0.0001342,"INCLINATION":53.2164,"RA_OF_ASC_NODE":210.7078,"ARG_OF_PERICENTER":93.2623,"MEAN_ANOMALY":266.8523,"EPHEMERIS_TYPE":0,"CLASSIFICATION_TYPE":"U","NORAD_CAT_ID":53750,"ELEMENT_SET_NO":999,"REV_AT_EPOCH":19640,"BSTAR":0.00015164212,"MEAN_MOTION_DOT":2.127e-5,"MEAN_MOTION_DDOT":0},{"OBJECT_NAME":"STARLINK-4718","OBJECT_ID":"2022-111A","EPOCH":"2026-03-21T15:47:02.508288","MEAN_MOTION":15.08841458,"ECCENTRICITY":0.00012066,"INCLINATION":53.2162,"RA_OF_ASC_NODE":230.3192,"ARG_OF_PERICENTER":88.4512,"MEAN_ANOMALY":271.6618,"EPHEMERIS_TYPE":0,"CLASSIFICATION_TYPE":"U","NORAD_CAT_ID":53773,"ELEMENT_SET_NO":999,"REV_AT_EPOCH":19565,"BSTAR":0.00010664422,"MEAN_MOTION_DOT":1.41e-5,"MEAN_MOTION_DDOT":0},{"OBJECT_NAME":"STARLINK-4719","OBJECT_ID":"2022-111B","EPOCH":"2026-03-21T15:41:45.475584","MEAN_MOTION":15.08832946,"ECCENTRICITY":0.0001085,"INCLINATION":53.2163,"RA_OF_ASC_NODE":230.2947,"ARG_OF_PERICENTER":102.7339,"MEAN_ANOMALY":257.3774,"EPHEMERIS_TYPE":0,"CLASSIFICATION_TYPE":"U","NORAD_CAT_ID":53774,"ELEMENT_SET_NO":999,"REV_AT_EPOCH":19551,"BSTAR":0.00024678381,"MEAN_MOTION_DOT":3.641e-5,"MEAN_MOTION_DDOT":0},{"OBJECT_NAME":"STARLINK-4722","OBJECT_ID":"2022-111C","EPOCH":"2026-03-21T19:36:17.214624","MEAN_MOTION":15.08848666,"ECCENTRICITY":0.00011101,"INCLINATION":53.2164,"RA_OF_ASC_NODE":219.9131,"ARG_OF_PERICENTER":87.7375,"MEAN_ANOMALY":272.3745,"EPHEMERIS_TYPE":0,"CLASSIFICATION_TYPE":"U","NORAD_CAT_ID":53775,"ELEMENT_SET_NO":999,"REV_AT_EPOCH":19552,"BSTAR":1.0406338e-5,"MEAN_MOTION_DOT":-1.22e-6,"MEAN_MOTION_DDOT":0},{"OBJECT_NAME":"STARLINK-4664","OBJECT_ID":"2022-111E","EPOCH":"2026-03-21T19:25:40.034496","MEAN_MOTION":15.0885013,"ECCENTRICITY":0.00013442,"INCLINATION":53.2178,"RA_OF_ASC_NODE":219.8664,"ARG_OF_PERICENTER":90.3448,"MEAN_ANOMALY":269.7698,"EPHEMERIS_TYPE":0,"CLASSIFICATION_TYPE":"U","NORAD_CAT_ID":53777,"ELEMENT_SET_NO":999,"REV_AT_EPOCH":19552,"BSTAR":2.8921122e-5,"MEAN_MOTION_DOT":1.73e-6,"MEAN_MOTION_DDOT":0},{"OBJECT_NAME":"STARLINK-4709","OBJECT_ID":"2022-111F","EPOCH":"2026-03-21T18:29:19.078080","MEAN_MOTION":15.0883801,"ECCENTRICITY":0.00012625,"INCLINATION":53.2163,"RA_OF_ASC_NODE":224.6163,"ARG_OF_PERICENTER":92.1046,"MEAN_ANOMALY":268.009,"EPHEMERIS_TYPE":0,"CLASSIFICATION_TYPE":"U","NORAD_CAT_ID":53778,"ELEMENT_SET_NO":999,"REV_AT_EPOCH":19545,"BSTAR":0.00015303434,"MEAN_MOTION_DOT":2.148e-5,"MEAN_MOTION_DDOT":0},{"OBJECT_NAME":"STARLINK-4706","OBJECT_ID":"2022-111G","EPOCH":"2026-03-21T19:20:22.085952","MEAN_MOTION":15.08843524,"ECCENTRICITY":0.00011756,"INCLINATION":53.2167,"RA_OF_ASC_NODE":219.8443,"ARG_OF_PERICENTER":91.4957,"MEAN_ANOMALY":268.617,"EPHEMERIS_TYPE":0,"CLASSIFICATION_TYPE":"U","NORAD_CAT_ID":53779,"ELEMENT_SET_NO":999,"REV_AT_EPOCH":19552,"BSTAR":1.6757683e-5,"MEAN_MOTION_DOT":-2.1e-7,"MEAN_MOTION_DDOT":0},{"OBJECT_NAME":"STARLINK-4678","OBJECT_ID":"2022-111H","EPOCH":"2026-03-21T21:06:20.904768","MEAN_MOTION":15.08849642,"ECCENTRICITY":0.00011736,"INCLINATION":53.2162,"RA_OF_ASC_NODE":219.5926,"ARG_OF_PERICENTER":88.9347,"MEAN_ANOMALY":271.178,"EPHEMERIS_TYPE":0,"CLASSIFICATION_TYPE":"U","NORAD_CAT_ID":53780,"ELEMENT_SET_NO":999,"REV_AT_EPOCH":19553,"BSTAR":0.00012895441,"MEAN_MOTION_DOT":1.766e-5,"MEAN_MOTION_DDOT":0},{"OBJECT_NAME":"STARLINK-4462","OBJECT_ID":"2022-111J","EPOCH":"2026-03-21T14:18:16.940160","MEAN_MOTION":15.08846731,"ECCENTRICITY":0.00011963,"INCLINATION":53.2162,"RA_OF_ASC_NODE":220.6687,"ARG_OF_PERICENTER":83.0688,"MEAN_ANOMALY":277.044,"EPHEMERIS_TYPE":0,"CLASSIFICATION_TYPE":"U","NORAD_CAT_ID":53781,"ELEMENT_SET_NO":999,"REV_AT_EPOCH":19549,"BSTAR":0.0001321798,"MEAN_MOTION_DOT":1.817e-5,"MEAN_MOTION_DDOT":0},{"OBJECT_NAME":"STARLINK-4679","OBJECT_ID":"2022-111K","EPOCH":"2026-03-22T00:00:02.000160","MEAN_MOTION":15.1769635,"ECCENTRICITY":0.00015706,"INCLINATION":53.2172,"RA_OF_ASC_NODE":218.6306,"ARG_OF_PERICENTER":74.0552,"MEAN_ANOMALY":79.6206,"EPHEMERIS_TYPE":0,"CLASSIFICATION_TYPE":"U","NORAD_CAT_ID":53782,"ELEMENT_SET_NO":999,"REV_AT_EPOCH":579,"BSTAR":0.0023039818,"MEAN_MOTION_DOT":0.00046996,"MEAN_MOTION_DDOT":0},{"OBJECT_NAME":"STARLINK-4536","OBJECT_ID":"2022-111L","EPOCH":"2026-03-21T14:07:40.623168","MEAN_MOTION":15.08844464,"ECCENTRICITY":0.00013623,"INCLINATION":53.2167,"RA_OF_ASC_NODE":220.6232,"ARG_OF_PERICENTER":89.9699,"MEAN_ANOMALY":270.1449,"EPHEMERIS_TYPE":0,"CLASSIFICATION_TYPE":"U","NORAD_CAT_ID":53783,"ELEMENT_SET_NO":999,"REV_AT_EPOCH":19549,"BSTAR":0.00011091834,"MEAN_MOTION_DOT":1.478e-5,"MEAN_MOTION_DDOT":0},{"OBJECT_NAME":"STARLINK-4687","OBJECT_ID":"2022-111M","EPOCH":"2026-03-21T19:09:44.415936","MEAN_MOTION":15.08851133,"ECCENTRICITY":0.00011581,"INCLINATION":53.2157,"RA_OF_ASC_NODE":219.7994,"ARG_OF_PERICENTER":83.6733,"MEAN_ANOMALY":276.4391,"EPHEMERIS_TYPE":0,"CLASSIFICATION_TYPE":"U","NORAD_CAT_ID":53784,"ELEMENT_SET_NO":999,"REV_AT_EPOCH":19552,"BSTAR":0.00012423025,"MEAN_MOTION_DOT":1.69e-5,"MEAN_MOTION_DDOT":0},{"OBJECT_NAME":"STARLINK-4743","OBJECT_ID":"2022-111Q","EPOCH":"2026-03-21T18:43:13.172448","MEAN_MOTION":15.08845667,"ECCENTRICITY":0.00012971,"INCLINATION":53.2171,"RA_OF_ASC_NODE":219.6854,"ARG_OF_PERICENTER":93.4592,"MEAN_ANOMALY":266.6549,"EPHEMERIS_TYPE":0,"CLASSIFICATION_TYPE":"U","NORAD_CAT_ID":53787,"ELEMENT_SET_NO":999,"REV_AT_EPOCH":19552,"BSTAR":5.9526729e-5,"MEAN_MOTION_DOT":6.6e-6,"MEAN_MOTION_DDOT":0},{"OBJECT_NAME":"STARLINK-4666","OBJECT_ID":"2022-111S","EPOCH":"2026-03-21T15:16:32.305728","MEAN_MOTION":15.08854688,"ECCENTRICITY":0.00015412,"INCLINATION":53.2173,"RA_OF_ASC_NODE":220.21,"ARG_OF_PERICENTER":102.3211,"MEAN_ANOMALY":257.7954,"EPHEMERIS_TYPE":0,"CLASSIFICATION_TYPE":"U","NORAD_CAT_ID":53789,"ELEMENT_SET_NO":999,"REV_AT_EPOCH":19549,"BSTAR":0.00037302302,"MEAN_MOTION_DOT":5.656e-5,"MEAN_MOTION_DDOT":0},{"OBJECT_NAME":"STARLINK-4734","OBJECT_ID":"2022-111T","EPOCH":"2026-03-21T18:48:31.456224","MEAN_MOTION":15.08847161,"ECCENTRICITY":0.00012986,"INCLINATION":53.2164,"RA_OF_ASC_NODE":219.7074,"ARG_OF_PERICENTER":91.9549,"MEAN_ANOMALY":268.1592,"EPHEMERIS_TYPE":0,"CLASSIFICATION_TYPE":"U","NORAD_CAT_ID":53790,"ELEMENT_SET_NO":999,"REV_AT_EPOCH":19552,"BSTAR":6.4796134e-5,"MEAN_MOTION_DOT":7.44e-6,"MEAN_MOTION_DDOT":0},{"OBJECT_NAME":"STARLINK-4739","OBJECT_ID":"2022-111V","EPOCH":"2026-03-21T18:18:11.812608","MEAN_MOTION":15.08843918,"ECCENTRICITY":0.00012923,"INCLINATION":53.2167,"RA_OF_ASC_NODE":220.2755,"ARG_OF_PERICENTER":85.2222,"MEAN_ANOMALY":274.8918,"EPHEMERIS_TYPE":0,"CLASSIFICATION_TYPE":"U","NORAD_CAT_ID":53792,"ELEMENT_SET_NO":999,"REV_AT_EPOCH":19550,"BSTAR":0.00010310675,"MEAN_MOTION_DOT":1.354e-5,"MEAN_MOTION_DDOT":0},{"OBJECT_NAME":"STARLINK-4728","OBJECT_ID":"2022-111W","EPOCH":"2026-03-21T18:37:54.600960","MEAN_MOTION":15.08846477,"ECCENTRICITY":0.00010711,"INCLINATION":53.2157,"RA_OF_ASC_NODE":219.6585,"ARG_OF_PERICENTER":98.0268,"MEAN_ANOMALY":262.0846,"EPHEMERIS_TYPE":0,"CLASSIFICATION_TYPE":"U","NORAD_CAT_ID":53793,"ELEMENT_SET_NO":999,"REV_AT_EPOCH":19551,"BSTAR":8.3760644e-5,"MEAN_MOTION_DOT":1.046e-5,"MEAN_MOTION_DDOT":0}]
